OBJECT_NAME,OBJECT_ID,EPOCH,MEAN_MOTION,ECCENTRICITY,INCLINATION,RA_OF_ASC_NODE,ARG_OF_PERICENTER,MEAN_ANOMALY,EPHEMERIS_TYPE,CLASSIFICATION_TYPE,NORAD_CAT_ID,ELEMENT_SET_NO,REV_AT_EPOCH,BSTAR,MEAN_MOTION_DOT,MEAN_MOTION_DDOT
NIMIQ 2,2002-062A,2026-06-28T14:57:18.671328,1.00272591,.000581,9.4711,56.7772,35.4937,299.5918,0,U,27632,999,4429,0,-.66E-6,0
USA 167,2003-008A,2026-06-28T08:22:17.590080,1.00272994,.00038341,10.9826,43.3085,320.7053,276.3175,0,U,27691,999,688,0,.5E-7,0
USA 169 (MILSTAR-2 4),2003-012A,2026-06-28T18:10:50.916864,1.00272268,.01006031,12.3663,29.7467,9.8385,302.1346,0,U,27711,999,3306,0,-.256E-5,0
ASIASAT 4,2003-014A,2026-06-28T18:03:58.042368,1.00270324,.00028224,4.7328,75.6035,26.4814,233.2867,0,U,27718,999,4541,0,-.216E-5,0
HELLAS-SAT 2,2003-020A,2026-06-28T20:58:02.762112,1.00272324,.00031568,7.3824,67.7462,49.0678,104.6314,0,U,27811,999,4296,0,-.8E-6,0
THURAYA-2,2003-026A,2026-06-28T23:11:12.945120,1.00274293,.00026397,8.8577,31.9236,16.4646,260.4962,0,U,27825,999,8446,0,.129E-5,0
OPTUS C1,2003-028B,2026-06-28T18:12:01.295712,1.00272157,.00058143,6.9174,69.2719,23.7989,252.5500,0,U,27831,999,5317,0,-.146E-5,0
USA 170,2003-040A,2026-06-28T22:42:46.918368,1.00272204,.00023828,10.5240,47.8365,64.6735,169.3974,0,U,27875,999,3311,0,.128E-5,0
GALAXY 13 (HORIZONS-1),2003-044A,2026-06-28T16:52:48.595872,1.00270525,.00016962,1.4483,83.7196,6.6843,289.5725,0,U,27954,999,4668,0,.143E-5,0
YAMAL 202,2003-053A,2026-06-28T14:55:27.364800,1.00271334,.0003211,6.3720,70.8002,19.6342,213.6780,0,U,28089,999,8281,0,-.75E-6,0
UFO 11 (USA 174),2003-057A,2026-06-28T22:02:46.831776,1.00272151,.00024371,8.9439,33.7688,75.3065,214.2338,0,U,28117,999,8256,0,-.1E-5,0
USA 176 (DSP 22),2004-004A,2026-06-28T10:30:50.950944,1.00273300,.00010691,12.0769,25.9868,324.4788,34.5110,0,U,28158,999,3304,0,-.294E-5,0
ABS-4 (MOBISAT-1),2004-007A,2026-06-28T05:54:18.225792,1.00269147,.00045508,6.0687,71.8740,24.0341,329.9954,0,U,28184,999,5244,0,.45E-6,0
INTELSAT 10-02,2004-022A,2026-06-28T09:01:54.029856,1.00279320,.0000745,0.0291,284.0988,227.6296,259.2227,0,U,28358,999,8066,0,.2E-7,0
ANIK F2,2004-027A,2026-06-28T20:29:07.024128,1.00272403,.00042803,3.3165,79.2979,16.2984,17.5008,0,U,28378,999,4138,0,-.42E-6,0
AMC-15,2004-041A,2026-06-28T23:54:50.097888,1.00272072,.00025333,0.0164,19.5553,73.7670,77.4188,0,U,28446,999,7942,0,-.77E-6,0
NSS-10,2005-003A,2026-06-28T23:08:34.528128,1.00271876,.00031587,6.4777,70.3127,20.9125,135.5199,0,U,28526,999,5327,0,-.246E-5,0
INMARSAT 4-F1,2005-009A,2026-06-28T15:03:21.201408,1.00272378,.00029808,5.1829,42.7740,54.7119,223.1875,0,U,28628,999,7778,0,.4E-6,0
DIRECTV 8,2005-019A,2026-06-28T15:02:28.841280,1.00271971,.00033317,0.0257,73.5054,29.9467,279.8380,0,U,28659,999,7718,0,.13E-6,0
GALAXY 28 (G-28),2005-022A,2026-06-28T22:59:26.132640,1.00270576,.00022693,3.3280,78.7899,20.1879,135.8195,0,U,28702,999,5209,0,-.192E-5,0
THAICOM 4,2005-028A,2026-06-28T10:40:38.635968,1.00273092,.00020091,0.2735,85.7846,359.0716,111.3549,0,U,28786,999,5236,0,-.351E-5,0
ANIK F1R,2005-036A,2026-06-28T23:42:12.271392,1.00272157,.00044578,4.3418,76.4390,9.4362,79.4480,0,U,28868,999,4657,0,-.68E-6,0
SYRACUSE 3A,2005-041B,2026-06-28T21:14:08.814336,1.00273093,.00027715,4.6712,75.6949,17.4236,189.0369,0,U,28885,999,7586,0,.136E-5,0
INMARSAT 4-F2,2005-044A,2026-06-28T23:24:24.103008,1.00271452,.00033341,5.1093,43.6742,43.5584,324.4231,0,U,28899,999,7564,0,-.253E-5,0
METEOSAT-9 (MSG-2),2005-049B,2026-06-28T23:14:59.974944,1.00278597,.00019199,9.3869,54.0519,359.7363,257.8028,0,U,28912,999,711,0,.126E-5,0
EUTELSAT 174A,2005-052A,2026-06-28T20:07:46.570080,1.00275022,.00065704,4.2478,76.3890,19.0895,297.4116,0,U,28924,999,5244,0,.17E-6,0
ECHOSTAR 10,2006-003A,2026-06-28T20:29:14.512416,1.00272166,.00022042,0.0169,349.2610,60.2839,64.5233,0,U,28935,999,7458,0,-.44E-6,0
SPAINSAT,2006-007A,2026-06-28T07:35:13.821216,1.00271135,.00051281,0.5912,86.3718,9.2740,264.4080,0,U,28945,999,7433,0,-.206E-5,0
JCSAT-5A,2006-010A,2026-06-28T23:21:09.413568,1.00271074,.0002239,1.1392,84.1141,4.9634,310.3225,0,U,29045,999,7388,0,-.317E-5,0
ASTRA 1KR,2006-012A,2026-06-28T21:06:16.970976,1.00270075,.00038251,0.5032,83.2368,5.9174,163.3882,0,U,29055,999,4581,0,.13E-5,0
GALAXY 16 (G-16),2006-023A,2026-06-28T15:24:34.543008,1.00271983,.00028742,0.0443,116.2985,331.8574,320.7141,0,U,29236,999,7308,0,-.115E-5,0
EUTELSAT 33F,2006-032A,2026-06-28T19:27:34.662240,1.00271164,.00037884,1.6907,82.1276,12.3934,147.3437,0,U,29270,999,4742,0,.165E-5,0
