NIMIQ 2                 
1 27632U 02062A   26179.62313277 -.00000066  00000+0  00000+0 0  9997
2 27632   9.4711  56.7772 0005810  35.4937 299.5918  1.00272591 44292
USA 167                 
1 27691U 03008A   26179.34881470  .00000005  00000+0  00000+0 0  9999
2 27691  10.9826  43.3085 0003834 320.7053 276.3175  1.00272994  6881
USA 169 (MILSTAR-2 4)   
1 27711U 03012A   26179.75753376 -.00000256  00000+0  00000+0 0  9994
2 27711  12.3663  29.7467 0100603   9.8385 302.1346  1.00272268 33068
ASIASAT 4               
1 27718U 03014A   26179.75275512 -.00000216  00000+0  00000+0 0  9990
2 27718   4.7328  75.6035 0002822  26.4814 233.2867  1.00270324 45410
HELLAS-SAT 2            
1 27811U 03020A   26179.87364308 -.00000080  00000+0  00000+0 0  9995
2 27811   7.3824  67.7462 0003156  49.0678 104.6314  1.00272324 42967
THURAYA-2               
1 27825U 03026A   26179.96612205  .00000129  00000+0  00000+0 0  9991
2 27825   8.8577  31.9236 0002639  16.4646 260.4962  1.00274293 84461
OPTUS C1                
1 27831U 03028B   26179.75834833 -.00000146  00000+0  00000+0 0  9990
2 27831   6.9174  69.2719 0005814  23.7989 252.5500  1.00272157 53170
USA 170                 
1 27875U 03040A   26179.94637637  .00000128  00000+0  00000+0 0  9995
2 27875  10.5240  47.8365 0002382  64.6735 169.3974  1.00272204 33117
GALAXY 13 (HORIZONS-1)  
1 27954U 03044A   26179.70334023  .00000143  00000+0  00000+0 0  9991
2 27954   1.4483  83.7196 0001696   6.6843 289.5725  1.00270525 46686
YAMAL 202               
1 28089U 03053A   26179.62184450 -.00000075  00000+0  00000+0 0  9994
2 28089   6.3720  70.8002 0003211  19.6342 213.6780  1.00271334 82813
UFO 11 (USA 174)        
1 28117U 03057A   26179.91859759 -.00000100  00000+0  00000+0 0  9992
2 28117   8.9439  33.7688 0002437  75.3065 214.2338  1.00272151 82564
USA 176 (DSP 22)        
1 28158U 04004A   26179.43808971 -.00000294  00000+0  00000+0 0  9991
2 28158  12.0769  25.9868 0001069 324.4788  34.5110  1.00273300 33041
ABS-4 (MOBISAT-1)       
1 28184U 04007A   26179.24604428  .00000045  00000+0  00000+0 0  9996
2 28184   6.0687  71.8740 0004550  24.0341 329.9954  1.00269147 52443
INTELSAT 10-02          
1 28358U 04022A   26179.37631979  .00000002  00000+0  00000+0 0  9994
2 28358   0.0291 284.0988 0000745 227.6296 259.2227  1.00279320 80662
ANIK F2                 
1 28378U 04027A   26179.85355352 -.00000042  00000+0  00000+0 0  9997
2 28378   3.3165  79.2979 0004280  16.2984  17.5008  1.00272403 41381
AMC-15                  
1 28446U 04041A   26179.99641317 -.00000077  00000+0  00000+0 0  9991
2 28446   0.0164  19.5553 0002533  73.7670  77.4188  1.00272072 79426
NSS-10                  
1 28526U 05003A   26179.96428852 -.00000246  00000+0  00000+0 0  9991
2 28526   6.4777  70.3127 0003158  20.9125 135.5199  1.00271876 53274
INMARSAT 4-F1           
1 28628U 05009A   26179.62732872  .00000040  00000+0  00000+0 0  9994
2 28628   5.1829  42.7740 0002980  54.7119 223.1875  1.00272378 77780
DIRECTV 8               
1 28659U 05019A   26179.62672270  .00000013  00000+0  00000+0 0  9994
2 28659   0.0257  73.5054 0003331  29.9467 279.8380  1.00271971 77185
GALAXY 28 (G-28)        
1 28702U 05022A   26179.95794135 -.00000192  00000+0  00000+0 0  9997
2 28702   3.3280  78.7899 0002269  20.1879 135.8195  1.00270576 52097
THAICOM 4               
1 28786U 05028A   26179.44489162 -.00000351  00000+0  00000+0 0  9997
2 28786   0.2735  85.7846 0002009 359.0716 111.3549  1.00273092 52364
ANIK F1R                
1 28868U 05036A   26179.98764203 -.00000068  00000+0  00000+0 0  9993
2 28868   4.3418  76.4390 0004457   9.4362  79.4480  1.00272157 46576
SYRACUSE 3A             
1 28885U 05041B   26179.88482424  .00000136  00000+0  00000+0 0  9994
2 28885   4.6712  75.6949 0002771  17.4236 189.0369  1.00273093 75860
INMARSAT 4-F2           
1 28899U 05044A   26179.97527897 -.00000253  00000+0  00000+0 0  9997
2 28899   5.1093  43.6742 0003334  43.5584 324.4231  1.00271452 75647
METEOSAT-9 (MSG-2)      
1 28912U 05049B   26179.96874971  .00000126  00000+0  00000+0 0  9993
2 28912   9.3869  54.0519 0001919 359.7363 257.8028  1.00278597  7119
EUTELSAT 174A           
1 28924U 05052A   26179.83873345  .00000017  00000+0  00000+0 0  9999
2 28924   4.2478  76.3890 0006570  19.0895 297.4116  1.00275022 52449
ECHOSTAR 10             
1 28935U 06003A   26179.85364019 -.00000044  00000+0  00000+0 0  9994
2 28935   0.0169 349.2610 0002204  60.2839  64.5233  1.00272166 74588
SPAINSAT                
1 28945U 06007A   26179.31613219 -.00000206  00000+0  00000+0 0  9999
2 28945   0.5912  86.3718 0005128   9.2740 264.4080  1.00271135 74339
JCSAT-5A                
1 29045U 06010A   26179.97302562 -.00000317  00000+0  00000+0 0  9996
2 29045   1.1392  84.1141 0002239   4.9634 310.3225  1.00271074 73883
ASTRA 1KR               
1 29055U 06012A   26179.87936309  .00000130  00000+0  00000+0 0  9992
2 29055   0.5032  83.2368 0003825   5.9174 163.3882  1.00270075 45818
GALAXY 16 (G-16)        
1 29236U 06023A   26179.64206647 -.00000115  00000+0  00000+0 0  9999
2 29236   0.0443 116.2985 0002874 331.8574 320.7141  1.00271983 73086
EUTELSAT 33F            
1 29270U 06032A   26179.81081785  .00000165  00000+0  00000+0 0  9994
2 29270   1.6907  82.1276 0003788  12.3934 147.3437  1.00271164 47427
